[{"OBJECT_NAME":"FLOCK 4G-22","OBJECT_ID":"2025-009AN","EPOCH":"2026-04-05T11:35:18.911328","MEAN_MOTION":15.27911899,"ECCENTRICITY":0.00029,"INCLINATION":97.4019,"RA_OF_ASC_NODE":177.9288,"ARG_OF_PERICENTER":163.0062,"MEAN_ANOMALY":197.1275,"EPHEMERIS_TYPE":0,"CLASSIFICATION_TYPE":"U","NORAD_CAT_ID":62645,"ELEMENT_SET_NO":999,"REV_AT_EPOCH":6781,"BSTAR":0.00054809935,"MEAN_MOTION_DOT":0.00014874,"MEAN_MOTION_DDOT":0},{"OBJECT_NAME":"FLOCK 4G-25","OBJECT_ID":"2025-009AP","EPOCH":"2026-04-05T04:58:40.986912","MEAN_MOTION":15.28082554,"ECCENTRICITY":0.00022971,"INCLINATION":97.4022,"RA_OF_ASC_NODE":177.6954,"ARG_OF_PERICENTER":166.191,"MEAN_ANOMALY":193.9393,"EPHEMERIS_TYPE":0,"CLASSIFICATION_TYPE":"U","NORAD_CAT_ID":62646,"ELEMENT_SET_NO":999,"REV_AT_EPOCH":6777,"BSTAR":0.00050752817,"MEAN_MOTION_DOT":0.00013836,"MEAN_MOTION_DDOT":0},{"OBJECT_NAME":"FLOCK 4G-23","OBJECT_ID":"2025-009AQ","EPOCH":"2026-04-05T04:20:38.094144","MEAN_MOTION":15.27887778,"ECCENTRICITY":0.0001843,"INCLINATION":97.3952,"RA_OF_ASC_NODE":177.201,"ARG_OF_PERICENTER":178.2652,"MEAN_ANOMALY":181.8594,"EPHEMERIS_TYPE":0,"CLASSIFICATION_TYPE":"U","NORAD_CAT_ID":62647,"ELEMENT_SET_NO":999,"REV_AT_EPOCH":6776,"BSTAR":0.00048333695,"MEAN_MOTION_DOT":0.00013094,"MEAN_MOTION_DDOT":0},{"OBJECT_NAME":"FLOCK 4G-34","OBJECT_ID":"2025-009AT","EPOCH":"2026-04-05T04:45:27.493632","MEAN_MOTION":15.27830248,"ECCENTRICITY":0.00021818,"INCLINATION":97.3974,"RA_OF_ASC_NODE":177.2727,"ARG_OF_PERICENTER":162.9988,"MEAN_ANOMALY":197.1325,"EPHEMERIS_TYPE":0,"CLASSIFICATION_TYPE":"U","NORAD_CAT_ID":62650,"ELEMENT_SET_NO":999,"REV_AT_EPOCH":6776,"BSTAR":0.00054015988,"MEAN_MOTION_DOT":0.0001462,"MEAN_MOTION_DDOT":0},{"OBJECT_NAME":"FLOCK 4G-21","OBJECT_ID":"2025-009AU","EPOCH":"2026-04-05T11:45:28.005408","MEAN_MOTION":15.29149939,"ECCENTRICITY":0.00021255,"INCLINATION":97.4004,"RA_OF_ASC_NODE":178.2709,"ARG_OF_PERICENTER":165.2046,"MEAN_ANOMALY":194.9257,"EPHEMERIS_TYPE":0,"CLASSIFICATION_TYPE":"U","NORAD_CAT_ID":62651,"ELEMENT_SET_NO":999,"REV_AT_EPOCH":6784,"BSTAR":0.0006020442,"MEAN_MOTION_DOT":0.00016979,"MEAN_MOTION_DDOT":0},{"OBJECT_NAME":"FLOCK 4G-31","OBJECT_ID":"2025-009AV","EPOCH":"2026-04-05T11:28:26.645088","MEAN_MOTION":15.27688631,"ECCENTRICITY":0.00017501,"INCLINATION":97.3979,"RA_OF_ASC_NODE":177.5432,"ARG_OF_PERICENTER":158.762,"MEAN_ANOMALY":201.3693,"EPHEMERIS_TYPE":0,"CLASSIFICATION_TYPE":"U","NORAD_CAT_ID":62652,"ELEMENT_SET_NO":999,"REV_AT_EPOCH":6780,"BSTAR":0.00055764348,"MEAN_MOTION_DOT":0.00015031,"MEAN_MOTION_DDOT":0},{"OBJECT_NAME":"FLOCK 4G-4","OBJECT_ID":"2025-009BC","EPOCH":"2026-04-05T11:42:07.427808","MEAN_MOTION":15.27475664,"ECCENTRICITY":0.00022653,"INCLINATION":97.3965,"RA_OF_ASC_NODE":177.3031,"ARG_OF_PERICENTER":184.8309,"MEAN_ANOMALY":175.2909,"EPHEMERIS_TYPE":0,"CLASSIFICATION_TYPE":"U","NORAD_CAT_ID":62659,"ELEMENT_SET_NO":999,"REV_AT_EPOCH":12540,"BSTAR":0.00052720604,"MEAN_MOTION_DOT":0.00014113,"MEAN_MOTION_DDOT":0},{"OBJECT_NAME":"FLOCK 4G-6","OBJECT_ID":"2025-009BD","EPOCH":"2026-04-05T04:06:25.610400","MEAN_MOTION":15.28193208,"ECCENTRICITY":0.00027857,"INCLINATION":97.3955,"RA_OF_ASC_NODE":177.0533,"ARG_OF_PERICENTER":205.814,"MEAN_ANOMALY":154.2961,"EPHEMERIS_TYPE":0,"CLASSIFICATION_TYPE":"U","NORAD_CAT_ID":62660,"ELEMENT_SET_NO":999,"REV_AT_EPOCH":12534,"BSTAR":0.00061618288,"MEAN_MOTION_DOT":0.00016879,"MEAN_MOTION_DDOT":0},{"OBJECT_NAME":"FLOCK 4G-2","OBJECT_ID":"2025-009BE","EPOCH":"2026-04-05T04:24:43.408800","MEAN_MOTION":15.28436366,"ECCENTRICITY":0.000373,"INCLINATION":97.4022,"RA_OF_ASC_NODE":177.5748,"ARG_OF_PERICENTER":203.4914,"MEAN_ANOMALY":156.6156,"EPHEMERIS_TYPE":0,"CLASSIFICATION_TYPE":"U","NORAD_CAT_ID":62661,"ELEMENT_SET_NO":999,"REV_AT_EPOCH":12537,"BSTAR":0.00058525537,"MEAN_MOTION_DOT":0.00016147,"MEAN_MOTION_DDOT":0},{"OBJECT_NAME":"FLOCK 4G-5","OBJECT_ID":"2025-009BG","EPOCH":"2026-04-05T03:48:09.566784","MEAN_MOTION":15.29273887,"ECCENTRICITY":0.00033826,"INCLINATION":97.4037,"RA_OF_ASC_NODE":177.8218,"ARG_OF_PERICENTER":181.3056,"MEAN_ANOMALY":178.8176,"EPHEMERIS_TYPE":0,"CLASSIFICATION_TYPE":"U","NORAD_CAT_ID":62663,"ELEMENT_SET_NO":999,"REV_AT_EPOCH":6777,"BSTAR":0.00044656379,"MEAN_MOTION_DOT":0.00012617,"MEAN_MOTION_DDOT":0},{"OBJECT_NAME":"FLOCK 4G-1","OBJECT_ID":"2025-009BK","EPOCH":"2026-04-05T11:34:21.856224","MEAN_MOTION":15.28195717,"ECCENTRICITY":0.0004009,"INCLINATION":97.4034,"RA_OF_ASC_NODE":177.863,"ARG_OF_PERICENTER":200.9104,"MEAN_ANOMALY":159.1972,"EPHEMERIS_TYPE":0,"CLASSIFICATION_TYPE":"U","NORAD_CAT_ID":62666,"ELEMENT_SET_NO":999,"REV_AT_EPOCH":6780,"BSTAR":0.00054653948,"MEAN_MOTION_DOT":0.00014961,"MEAN_MOTION_DDOT":0},{"OBJECT_NAME":"FLOCK 4G-14","OBJECT_ID":"2025-009BL","EPOCH":"2026-04-05T11:40:22.315296","MEAN_MOTION":15.27839744,"ECCENTRICITY":0.00042591,"INCLINATION":97.4037,"RA_OF_ASC_NODE":177.7241,"ARG_OF_PERICENTER":193.4091,"MEAN_ANOMALY":166.7036,"EPHEMERIS_TYPE":0,"CLASSIFICATION_TYPE":"U","NORAD_CAT_ID":62667,"ELEMENT_SET_NO":999,"REV_AT_EPOCH":6779,"BSTAR":0.00055149497,"MEAN_MOTION_DOT":0.00014935,"MEAN_MOTION_DDOT":0},{"OBJECT_NAME":"FLOCK 4G-10","OBJECT_ID":"2025-009BP","EPOCH":"2026-04-05T12:02:11.685696","MEAN_MOTION":15.27866883,"ECCENTRICITY":0.00038923,"INCLINATION":97.3937,"RA_OF_ASC_NODE":177.1596,"ARG_OF_PERICENTER":213.0585,"MEAN_ANOMALY":147.0412,"EPHEMERIS_TYPE":0,"CLASSIFICATION_TYPE":"U","NORAD_CAT_ID":62670,"ELEMENT_SET_NO":999,"REV_AT_EPOCH":12543,"BSTAR":0.00054988564,"MEAN_MOTION_DOT":0.00014903,"MEAN_MOTION_DDOT":0},{"OBJECT_NAME":"FLOCK 4G-36","OBJECT_ID":"2025-009BU","EPOCH":"2026-04-05T04:07:16.328928","MEAN_MOTION":15.27959525,"ECCENTRICITY":0.00043224,"INCLINATION":97.4025,"RA_OF_ASC_NODE":177.33,"ARG_OF_PERICENTER":201.2873,"MEAN_ANOMALY":158.8187,"EPHEMERIS_TYPE":0,"CLASSIFICATION_TYPE":"U","NORAD_CAT_ID":62675,"ELEMENT_SET_NO":999,"REV_AT_EPOCH":6774,"BSTAR":0.00060834574,"MEAN_MOTION_DOT":0.00016546,"MEAN_MOTION_DDOT":0},{"OBJECT_NAME":"FLOCK 4G-15","OBJECT_ID":"2025-009BX","EPOCH":"2026-04-05T04:21:30.602880","MEAN_MOTION":15.27976486,"ECCENTRICITY":0.00045935,"INCLINATION":97.4027,"RA_OF_ASC_NODE":177.4729,"ARG_OF_PERICENTER":198.5081,"MEAN_ANOMALY":161.5992,"EPHEMERIS_TYPE":0,"CLASSIFICATION_TYPE":"U","NORAD_CAT_ID":62678,"ELEMENT_SET_NO":999,"REV_AT_EPOCH":12539,"BSTAR":0.00049951934,"MEAN_MOTION_DOT":0.00013575,"MEAN_MOTION_DDOT":0},{"OBJECT_NAME":"FLOCK 4G-30","OBJECT_ID":"2025-009BY","EPOCH":"2026-04-05T04:08:15.329760","MEAN_MOTION":15.27988407,"ECCENTRICITY":0.00039567,"INCLINATION":97.3938,"RA_OF_ASC_NODE":176.8506,"ARG_OF_PERICENTER":217.4504,"MEAN_ANOMALY":142.646,"EPHEMERIS_TYPE":0,"CLASSIFICATION_TYPE":"U","NORAD_CAT_ID":62679,"ELEMENT_SET_NO":999,"REV_AT_EPOCH":12538,"BSTAR":0.0005083018,"MEAN_MOTION_DOT":0.0001382,"MEAN_MOTION_DDOT":0}]
